CRE (WAAS/PRN 138)      
1 28868U 05036A   20027.17411986 -.00000079  00000-0  00000+0 0  9990
2 28868   0.0138  57.6090 0002321 298.2357  85.4092  1.00271685 52765
IOR-W (EGNOS/PRN 126)   
1 28899U 05044A   20026.78926187  .00000005  00000-0  00000+0 0  9991
2 28899   2.9647  28.7753 0002544 282.8116 161.9625  1.00272765 52109
MTSAT-2 (MSAS/PRN 137)  
1 28937U 06004A   20026.80548779 -.00000248  00000-0  00000+0 0  9991
2 28937   0.0707 280.6432 0002789   9.0256 270.8208  1.00274179 50955
QZS-1 (QZSS/PRN 183)    
1 37158U 10045A   20025.65703147 -.00000208  00000-0  00000+0 0  9996
2 37158  41.5073 145.6343 0758057 270.5127  82.2319  1.00256335 34308
GSAT-8 (GAGAN/PRN 127)  
1 37605U 11022A   20026.39702153  .00000078  00000-0  00000-0 0  9992
2 37605   0.0194  86.4874 0007944 191.2165  45.4895  1.00269900 29815
LUCH 5A (SDCM/PRN 140)  
1 37951U 11074B   20026.61368968 -.00000055  00000-0  00000-0 0  9996
2 37951   2.9475 119.7130 0002133 211.4473 181.9482  1.00270527 29791
SES-5 (EGNOS/PRN 136)   
1 38652U 12036A   20026.77757226  .00000028  00000-0  00000+0 0  9998
2 38652   0.0507  97.8922 0001797 202.6589 109.8531  1.00272987 27676
GSAT-10 (GAGAN/PRN 128) 
1 38779U 12051B   20027.09841088 -.00000170  00000-0  00000+0 0  9990
2 38779   0.0398 116.6904 0000589 199.5881 287.9801  1.00272039 26890
LUCH 5B (SDCM/PRN 125)  
1 38977U 12061A   20026.44910515 -.00000141  00000-0  00000-0 0  9990
2 38977   5.4562  68.5754 0003084 240.8760 321.1333  1.00272218 26776
ASTRA 5B (EGNOS/PRN 123)
1 39617U 14011B   20026.34563293  .00000148  00000-0  00000+0 0  9990
2 39617   0.0465 310.5943 0003470 359.1980 331.2049  1.00269749 21460
LUCH 5V (SDCM/PRN 141)  
1 39727U 14023A   20026.86725090 -.00000273  00000-0  00000+0 0  9997
2 39727   0.7697 315.0069 0002703  41.5362 175.9959  1.00270368539128
GSAT-15 (GAGAN/PRN 139) 
1 41028U 15065A   20026.86698919 -.00000264  00000-0  00000-0 0  9991
2 41028   0.0645 270.7573 0001366 325.7535 294.6844  1.00272659 15431
E 117 W B (WAAS/PRN 131)
1 41589U 16038B   20027.16452321 -.00000016  00000-0  00000+0 0  9997
2 41589   0.0120 146.0125 0000461 248.4392  33.6691  1.00265569 13314
SES-15 (WAAS/PRN 133)   
1 42709U 17026A   20026.73868750  .00000054  00000-0  00000-0 0  9991
2 42709   0.0105  78.8157 0000539 246.6595 296.7728  1.00274158 10752
QZS-2 (QZSS/PRN 184)    
1 42738U 17028A   20025.56785572 -.00000170  00000-0  00000+0 0  9994
2 42738  43.2296 276.4271 0753118 269.7799 283.1505  1.00279103  9720
QZS-3 (QZSS/PRN 189)    
1 42917U 17048A   20027.01726122 -.00000353  00000-0  00000+0 0  9996
2 42917   0.0597 226.6676 0001202 109.6521 282.6979  1.00272227  8970
QZS-4 (QZSS/PRN 185)    
1 42965U 17062A   20025.29789767 -.00000345  00000-0  00000+0 0  9998
2 42965  40.8025  13.4918 0750660 268.7949  85.6634  1.00297704  8406